{
  "type": "FeatureCollection",
  "features": [
    {
      "type": "Feature",
      "properties": {
        "norad_id": 34121,
        "name": "COSMOS 2251 DEB",
        "group": "cosmos-2251-debris",
        "lat": -22.37577775986509,
        "lon": -90.88507575869126,
        "alt_km": 900.3622978279209,
        "timestamp": "2025-12-21T09:37:23.048668+00:00",
        "meta_object_name": "COSMOS 2251 DEB",
        "meta_object_id": "1993-036KS",
        "meta_epoch": "2025-12-21T00:52:51.557376",
        "meta_mean_motion": 13.91956958,
        "meta_eccentricity": 0.0240793,
        "meta_inclination": 73.9924,
        "meta_ra_of_asc_node": 82.9519,
        "meta_arg_of_pericenter": 286.6615,
        "meta_mean_anomaly": 254.7048,
        "meta_ephemeris_type": 0,
        "meta_classification_type": "U",
        "meta_norad_cat_id": 34121,
        "meta_element_set_no": 999,
        "meta_rev_at_epoch": 85240,
        "meta_bstar": 0.0008837,
        "meta_mean_motion_dot": 1.403e-05,
        "meta_mean_motion_ddot": 0,
        "tle_line1": "1 34121U 93036KS  25355.03670784  .00001403  00000+0  88370-3 0  9993",
        "tle_line2": "2 34121  73.9924  82.9519 0240793 286.6615 254.7048 13.91956958852405"
      },
      "geometry": {
        "type": "Point",
        "coordinates": [
          -90.88507575869126,
          -22.37577775986509
        ]
      }
    },
    {
      "type": "Feature",
      "properties": {
        "norad_id": 34122,
        "name": "COSMOS 2251 DEB",
        "group": "cosmos-2251-debris",
        "lat": -33.05425001265461,
        "lon": -67.29320424947092,
        "alt_km": 729.3058589781358,
        "timestamp": "2025-12-21T09:37:23.048678+00:00",
        "meta_object_name": "COSMOS 2251 DEB",
        "meta_object_id": "1993-036KT",
        "meta_epoch": "2025-12-19T17:59:46.157856",
        "meta_mean_motion": 14.65126194,
        "meta_eccentricity": 0.0084721,
        "meta_inclination": 74.0362,
        "meta_ra_of_asc_node": 105.1466,
        "meta_arg_of_pericenter": 0.0124,
        "meta_mean_anomaly": 149.8471,
        "meta_ephemeris_type": 0,
        "meta_classification_type": "U",
        "meta_norad_cat_id": 34122,
        "meta_element_set_no": 999,
        "meta_rev_at_epoch": 88787,
        "meta_bstar": 0.00069383656,
        "meta_mean_motion_dot": 3.9e-05,
        "meta_mean_motion_ddot": 0,
        "tle_line1": "1 34122U 93036KT  25353.74983979  .00003900  00000+0  69384-3 0  9991",
        "tle_line2": "2 34122  74.0362 105.1466 0084721   0.0124 149.8471 14.65126194887879"
      },
      "geometry": {
        "type": "Point",
        "coordinates": [
          -67.29320424947092,
          -33.05425001265461
        ]
      }
    },
    {
      "type": "Feature",
      "properties": {
        "norad_id": 34127,
        "name": "COSMOS 2251 DEB",
        "group": "cosmos-2251-debris",
        "lat": 18.66049882210556,
        "lon": -157.28472050451472,
        "alt_km": 752.0208804893036,
        "timestamp": "2025-12-21T09:37:23.048688+00:00",
        "meta_object_name": "COSMOS 2251 DEB",
        "meta_object_id": "1993-036KY",
        "meta_epoch": "2025-12-21T04:06:31.489920",
        "meta_mean_motion": 14.31614218,
        "meta_eccentricity": 0.0114848,
        "meta_inclination": 74.1791,
        "meta_ra_of_asc_node": 28.6253,
        "meta_arg_of_pericenter": 226.9764,
        "meta_mean_anomaly": 191.0133,
        "meta_ephemeris_type": 0,
        "meta_classification_type": "U",
        "meta_norad_cat_id": 34127,
        "meta_element_set_no": 999,
        "meta_rev_at_epoch": 86892,
        "meta_bstar": 0.001032,
        "meta_mean_motion_dot": 2.93e-05,
        "meta_mean_motion_ddot": 0,
        "tle_line1": "1 34127U 93036KY  25355.17119780  .00002930  00000+0  10320-2 0  9993",
        "tle_line2": "2 34127  74.1791  28.6253 0114848 226.9764 191.0133 14.31614218868928"
      },
      "geometry": {
        "type": "Point",
        "coordinates": [
          -157.28472050451472,
          18.66049882210556
        ]
      }
    },
    {
      "type": "Feature",
      "properties": {
        "norad_id": 34128,
        "name": "COSMOS 2251 DEB",
        "group": "cosmos-2251-debris",
        "lat": 19.54728614552826,
        "lon": -75.10926136852483,
        "alt_km": 544.3795773435004,
        "timestamp": "2025-12-21T09:37:23.048698+00:00",
        "meta_object_name": "COSMOS 2251 DEB",
        "meta_object_id": "1993-036KZ",
        "meta_epoch": "2025-12-21T03:25:20.177760",
        "meta_mean_motion": 15.01457349,
        "meta_eccentricity": 0.002599,
        "meta_inclination": 73.9994,
        "meta_ra_of_asc_node": 279.5704,
        "meta_arg_of_pericenter": 29.8425,
        "meta_mean_anomaly": 34.737,
        "meta_ephemeris_type": 0,
        "meta_classification_type": "U",
        "meta_norad_cat_id": 34128,
        "meta_element_set_no": 999,
        "meta_rev_at_epoch": 89293,
        "meta_bstar": 0.0010034,
        "meta_mean_motion_dot": 0.00013042,
        "meta_mean_motion_ddot": 0,
        "tle_line1": "1 34128U 93036KZ  25355.14259465  .00013042  00000+0  10034-2 0  9994",
        "tle_line2": "2 34128  73.9994 279.5704 0025990  29.8425  34.7370 15.01457349892934"
      },
      "geometry": {
        "type": "Point",
        "coordinates": [
          -75.10926136852483,
          19.54728614552826
        ]
      }
    },
    {
      "type": "Feature",
      "properties": {
        "norad_id": 34129,
        "name": "COSMOS 2251 DEB",
        "group": "cosmos-2251-debris",
        "lat": -40.84831134655227,
        "lon": 156.9078188987299,
        "alt_km": 671.9479423462535,
        "timestamp": "2025-12-21T09:37:23.048708+00:00",
        "meta_object_name": "COSMOS 2251 DEB",
        "meta_object_id": "1993-036LA",
        "meta_epoch": "2025-12-20T06:35:18.877056",
        "meta_mean_motion": 14.75860485,
        "meta_eccentricity": 0.00332842,
        "meta_inclination": 74.0352,
        "meta_ra_of_asc_node": 324.7802,
        "meta_arg_of_pericenter": 43.9199,
        "meta_mean_anomaly": 316.4612,
        "meta_ephemeris_type": 0,
        "meta_classification_type": "U",
        "meta_norad_cat_id": 34129,
        "meta_element_set_no": 999,
        "meta_rev_at_epoch": 61409,
        "meta_bstar": 0.00098354282,
        "meta_mean_motion_dot": 6.785e-05,
        "meta_mean_motion_ddot": 0,
        "tle_line1": "1 34129U 93036LA  25354.27452404  .00006785  00000+0  98354-3 0  9994",
        "tle_line2": "2 34129  74.0352 324.7802 0033284  43.9199 316.4612 14.75860485614094"
      },
      "geometry": {
        "type": "Point",
        "coordinates": [
          156.9078188987299,
          -40.84831134655227
        ]
      }
    },
    {
      "type": "Feature",
      "properties": {
        "norad_id": 34136,
        "name": "COSMOS 2251 DEB",
        "group": "cosmos-2251-debris",
        "lat": 27.458641343797098,
        "lon": -163.01333011273877,
        "alt_km": 567.9639779298723,
        "timestamp": "2025-12-21T09:37:23.048718+00:00",
        "meta_object_name": "COSMOS 2251 DEB",
        "meta_object_id": "1993-036LH",
        "meta_epoch": "2025-12-20T20:45:28.784736",
        "meta_mean_motion": 14.80127198,
        "meta_eccentricity": 0.00852276,
        "meta_inclination": 74.0198,
        "meta_ra_of_asc_node": 26.6074,
        "meta_arg_of_pericenter": 147.3711,
        "meta_mean_anomaly": 28.6822,
        "meta_ephemeris_type": 0,
        "meta_classification_type": "U",
        "meta_norad_cat_id": 34136,
        "meta_element_set_no": 999,
        "meta_rev_at_epoch": 90130,
        "meta_bstar": 0.00022743139,
        "meta_mean_motion_dot": 1.799e-05,
        "meta_mean_motion_ddot": 0,
        "tle_line1": "1 34136U 93036LH  25354.86491649  .00001799  00000+0  22743-3 0  9990",
        "tle_line2": "2 34136  74.0198  26.6074 0085227 147.3711  28.6822 14.80127198901303"
      },
      "geometry": {
        "type": "Point",
        "coordinates": [
          -163.01333011273877,
          27.458641343797098
        ]
      }
    },
    {
      "type": "Feature",
      "properties": {
        "norad_id": 34139,
        "name": "COSMOS 2251 DEB",
        "group": "cosmos-2251-debris",
        "lat": -57.72113635376521,
        "lon": -149.4050222290605,
        "alt_km": 672.8859304119196,
        "timestamp": "2025-12-21T09:37:23.048728+00:00",
        "meta_object_name": "COSMOS 2251 DEB",
        "meta_object_id": "1993-036LL",
        "meta_epoch": "2025-12-20T22:27:19.402272",
        "meta_mean_motion": 14.5915977,
        "meta_eccentricity": 0.0042514,
        "meta_inclination": 74.0303,
        "meta_ra_of_asc_node": 238.4405,
        "meta_arg_of_pericenter": 308.1952,
        "meta_mean_anomaly": 67.0502,
        "meta_ephemeris_type": 0,
        "meta_classification_type": "U",
        "meta_norad_cat_id": 34139,
        "meta_element_set_no": 999,
        "meta_rev_at_epoch": 88269,
        "meta_bstar": 0.00082369,
        "meta_mean_motion_dot": 3.901e-05,
        "meta_mean_motion_ddot": 0,
        "tle_line1": "1 34139U 93036LL  25354.93564123  .00003901  00000+0  82369-3 0  9996",
        "tle_line2": "2 34139  74.0303 238.4405 0042514 308.1952  67.0502 14.59159770882690"
      },
      "geometry": {
        "type": "Point",
        "coordinates": [
          -149.4050222290605,
          -57.72113635376521
        ]
      }
    }
  ]
}